<?xml version="1.0" encoding="UTF-8"?>
<ndm xmlns:xsi="http://www.w3.org/2001/XMLSchema-instance" xsi:noNamespaceSchemaLocation="https://sanaregistry.org/r/ndmxml_unqualified/ndmxml-2.0.0-master-2.0.xsd">
<omm id="CCSDS_OMM_VERS" version="2.0">
<header><CREATION_DATE/><ORIGINATOR/></header><body><segment><metadata><OBJECT_NAME>KUIPER-00008</OBJECT_NAME><OBJECT_ID>2025-088A</OBJECT_ID><CENTER_NAME>EARTH</CENTER_NAME><REF_FRAME>TEME</REF_FRAME><TIME_SYSTEM>UTC</TIME_SYSTEM><MEAN_ELEMENT_THEORY>SGP4</MEAN_ELEMENT_THEORY></metadata><data><meanElements><EPOCH>2025-11-23T23:38:53.350080</EPOCH><MEAN_MOTION>14.99966014</MEAN_MOTION><ECCENTRICITY>.001115</ECCENTRICITY><INCLINATION>51.8893</INCLINATION><RA_OF_ASC_NODE>208.8144</RA_OF_ASC_NODE><ARG_OF_PERICENTER>111.3412</ARG_OF_PERICENTER><MEAN_ANOMALY>248.8750</MEAN_ANOMALY></meanElements><tleParameters><EPHEMERIS_TYPE>0</EPHEMERIS_TYPE><CLASSIFICATION_TYPE>U</CLASSIFICATION_TYPE><NORAD_CAT_ID>63724</NORAD_CAT_ID><ELEMENT_SET_NO>999</ELEMENT_SET_NO><REV_AT_EPOCH>3220</REV_AT_EPOCH><BSTAR>-.10005E-2</BSTAR><MEAN_MOTION_DOT>-.12832E-3</MEAN_MOTION_DOT><MEAN_MOTION_DDOT>0</MEAN_MOTION_DDOT></tleParameters></data></segment></body></omm>
<omm id="CCSDS_OMM_VERS" version="2.0">
<header><CREATION_DATE/><ORIGINATOR/></header><body><segment><metadata><OBJECT_NAME>KUIPER-00009</OBJECT_NAME><OBJECT_ID>2025-088B</OBJECT_ID><CENTER_NAME>EARTH</CENTER_NAME><REF_FRAME>TEME</REF_FRAME><TIME_SYSTEM>UTC</TIME_SYSTEM><MEAN_ELEMENT_THEORY>SGP4</MEAN_ELEMENT_THEORY></metadata><data><meanElements><EPOCH>2025-11-23T21:19:36.964128</EPOCH><MEAN_MOTION>14.80063858</MEAN_MOTION><ECCENTRICITY>.0013477</ECCENTRICITY><INCLINATION>51.9014</INCLINATION><RA_OF_ASC_NODE>214.3882</RA_OF_ASC_NODE><ARG_OF_PERICENTER>106.9584</ARG_OF_PERICENTER><MEAN_ANOMALY>253.2857</MEAN_ANOMALY></meanElements><tleParameters><EPHEMERIS_TYPE>0</EPHEMERIS_TYPE><CLASSIFICATION_TYPE>U</CLASSIFICATION_TYPE><NORAD_CAT_ID>63725</NORAD_CAT_ID><ELEMENT_SET_NO>999</ELEMENT_SET_NO><REV_AT_EPOCH>3211</REV_AT_EPOCH><BSTAR>-.57334E-2</BSTAR><MEAN_MOTION_DOT>-.43857E-3</MEAN_MOTION_DOT><MEAN_MOTION_DDOT>0</MEAN_MOTION_DDOT></tleParameters></data></segment></body></omm>
<omm id="CCSDS_OMM_VERS" version="2.0">
<header><CREATION_DATE/><ORIGINATOR/></header><body><segment><metadata><OBJECT_NAME>KUIPER-00010</OBJECT_NAME><OBJECT_ID>2025-088C</OBJECT_ID><CENTER_NAME>EARTH</CENTER_NAME><REF_FRAME>TEME</REF_FRAME><TIME_SYSTEM>UTC</TIME_SYSTEM><MEAN_ELEMENT_THEORY>SGP4</MEAN_ELEMENT_THEORY></metadata><data><meanElements><EPOCH>2025-11-24T00:28:06.894336</EPOCH><MEAN_MOTION>14.80296229</MEAN_MOTION><ECCENTRICITY>.0012356</ECCENTRICITY><INCLINATION>51.9000</INCLINATION><RA_OF_ASC_NODE>190.3138</RA_OF_ASC_NODE><ARG_OF_PERICENTER>148.3169</ARG_OF_PERICENTER><MEAN_ANOMALY>211.8540</MEAN_ANOMALY></meanElements><tleParameters><EPHEMERIS_TYPE>0</EPHEMERIS_TYPE><CLASSIFICATION_TYPE>U</CLASSIFICATION_TYPE><NORAD_CAT_ID>63726</NORAD_CAT_ID><ELEMENT_SET_NO>999</ELEMENT_SET_NO><REV_AT_EPOCH>3208</REV_AT_EPOCH><BSTAR>.41787E-3</BSTAR><MEAN_MOTION_DOT>.2994E-4</MEAN_MOTION_DOT><MEAN_MOTION_DDOT>0</MEAN_MOTION_DDOT></tleParameters></data></segment></body></omm>
<omm id="CCSDS_OMM_VERS" version="2.0">
<header><CREATION_DATE/><ORIGINATOR/></header><body><segment><metadata><OBJECT_NAME>KUIPER-00011</OBJECT_NAME><OBJECT_ID>2025-088D</OBJECT_ID><CENTER_NAME>EARTH</CENTER_NAME><REF_FRAME>TEME</REF_FRAME><TIME_SYSTEM>UTC</TIME_SYSTEM><MEAN_ELEMENT_THEORY>SGP4</MEAN_ELEMENT_THEORY></metadata><data><meanElements><EPOCH>2025-11-23T20:19:03.743040</EPOCH><MEAN_MOTION>14.79933313</MEAN_MOTION><ECCENTRICITY>.0014773</ECCENTRICITY><INCLINATION>51.8989</INCLINATION><RA_OF_ASC_NODE>198.6972</RA_OF_ASC_NODE><ARG_OF_PERICENTER>120.2299</ARG_OF_PERICENTER><MEAN_ANOMALY>240.0128</MEAN_ANOMALY></meanElements><tleParameters><EPHEMERIS_TYPE>0</EPHEMERIS_TYPE><CLASSIFICATION_TYPE>U</CLASSIFICATION_TYPE><NORAD_CAT_ID>63727</NORAD_CAT_ID><ELEMENT_SET_NO>999</ELEMENT_SET_NO><REV_AT_EPOCH>3208</REV_AT_EPOCH><BSTAR>.16157E-2</BSTAR><MEAN_MOTION_DOT>.12137E-3</MEAN_MOTION_DOT><MEAN_MOTION_DDOT>0</MEAN_MOTION_DDOT></tleParameters></data></segment></body></omm>
<omm id="CCSDS_OMM_VERS" version="2.0">
<header><CREATION_DATE/><ORIGINATOR/></header><body><segment><metadata><OBJECT_NAME>KUIPER-00012</OBJECT_NAME><OBJECT_ID>2025-088E</OBJECT_ID><CENTER_NAME>EARTH</CENTER_NAME><REF_FRAME>TEME</REF_FRAME><TIME_SYSTEM>UTC</TIME_SYSTEM><MEAN_ELEMENT_THEORY>SGP4</MEAN_ELEMENT_THEORY></metadata><data><meanElements><EPOCH>2025-11-24T04:00:01.998720</EPOCH><MEAN_MOTION>14.81008072</MEAN_MOTION><ECCENTRICITY>.0007598</ECCENTRICITY><INCLINATION>51.8979</INCLINATION><RA_OF_ASC_NODE>180.3067</RA_OF_ASC_NODE><ARG_OF_PERICENTER>130.8346</ARG_OF_PERICENTER><MEAN_ANOMALY>121.6009</MEAN_ANOMALY></meanElements><tleParameters><EPHEMERIS_TYPE>0</EPHEMERIS_TYPE><CLASSIFICATION_TYPE>U</CLASSIFICATION_TYPE><NORAD_CAT_ID>63728</NORAD_CAT_ID><ELEMENT_SET_NO>999</ELEMENT_SET_NO><REV_AT_EPOCH>326</REV_AT_EPOCH><BSTAR>-.10406E-1</BSTAR><MEAN_MOTION_DOT>-.80692E-3</MEAN_MOTION_DOT><MEAN_MOTION_DDOT>0</MEAN_MOTION_DDOT></tleParameters></data></segment></body></omm>
<omm id="CCSDS_OMM_VERS" version="2.0">
<header><CREATION_DATE/><ORIGINATOR/></header><body><segment><metadata><OBJECT_NAME>KUIPER-00013</OBJECT_NAME><OBJECT_ID>2025-088F</OBJECT_ID><CENTER_NAME>EARTH</CENTER_NAME><REF_FRAME>TEME</REF_FRAME><TIME_SYSTEM>UTC</TIME_SYSTEM><MEAN_ELEMENT_THEORY>SGP4</MEAN_ELEMENT_THEORY></metadata><data><meanElements><EPOCH>2025-11-23T21:28:58.953792</EPOCH><MEAN_MOTION>14.79887381</MEAN_MOTION><ECCENTRICITY>.0007298</ECCENTRICITY><INCLINATION>51.9015</INCLINATION><RA_OF_ASC_NODE>215.8992</RA_OF_ASC_NODE><ARG_OF_PERICENTER>53.4049</ARG_OF_PERICENTER><MEAN_ANOMALY>306.7584</MEAN_ANOMALY></meanElements><tleParameters><EPHEMERIS_TYPE>0</EPHEMERIS_TYPE><CLASSIFICATION_TYPE>U</CLASSIFICATION_TYPE><NORAD_CAT_ID>63729</NORAD_CAT_ID><ELEMENT_SET_NO>999</ELEMENT_SET_NO><REV_AT_EPOCH>3190</REV_AT_EPOCH><BSTAR>.74264E-3</BSTAR><MEAN_MOTION_DOT>.5439E-4</MEAN_MOTION_DOT><MEAN_MOTION_DDOT>0</MEAN_MOTION_DDOT></tleParameters></data></segment></body></omm>
<omm id="CCSDS_OMM_VERS" version="2.0">
<header><CREATION_DATE/><ORIGINATOR/></header><body><segment><metadata><OBJECT_NAME>KUIPER-00014</OBJECT_NAME><OBJECT_ID>2025-088G</OBJECT_ID><CENTER_NAME>EARTH</CENTER_NAME><REF_FRAME>TEME</REF_FRAME><TIME_SYSTEM>UTC</TIME_SYSTEM><MEAN_ELEMENT_THEORY>SGP4</MEAN_ELEMENT_THEORY></metadata><data><meanElements><EPOCH>2025-11-23T21:26:43.861344</EPOCH><MEAN_MOTION>14.79914028</MEAN_MOTION><ECCENTRICITY>.0010053</ECCENTRICITY><INCLINATION>51.9017</INCLINATION><RA_OF_ASC_NODE>216.8822</RA_OF_ASC_NODE><ARG_OF_PERICENTER>98.4775</ARG_OF_PERICENTER><MEAN_ANOMALY>261.7327</MEAN_ANOMALY></meanElements><tleParameters><EPHEMERIS_TYPE>0</EPHEMERIS_TYPE><CLASSIFICATION_TYPE>U</CLASSIFICATION_TYPE><NORAD_CAT_ID>63730</NORAD_CAT_ID><ELEMENT_SET_NO>999</ELEMENT_SET_NO><REV_AT_EPOCH>3170</REV_AT_EPOCH><BSTAR>.78949E-3</BSTAR><MEAN_MOTION_DOT>.5802E-4</MEAN_MOTION_DOT><MEAN_MOTION_DDOT>0</MEAN_MOTION_DDOT></tleParameters></data></segment></body></omm>
<omm id="CCSDS_OMM_VERS" version="2.0">
<header><CREATION_DATE/><ORIGINATOR/></header><body><segment><metadata><OBJECT_NAME>KUIPER-00015</OBJECT_NAME><OBJECT_ID>2025-088H</OBJECT_ID><CENTER_NAME>EARTH</CENTER_NAME><REF_FRAME>TEME</REF_FRAME><TIME_SYSTEM>UTC</TIME_SYSTEM><MEAN_ELEMENT_THEORY>SGP4</MEAN_ELEMENT_THEORY></metadata><data><meanElements><EPOCH>2025-11-24T00:37:20.021952</EPOCH><MEAN_MOTION>14.81833609</MEAN_MOTION><ECCENTRICITY>.0011167</ECCENTRICITY><INCLINATION>51.8991</INCLINATION><RA_OF_ASC_NODE>227.5442</RA_OF_ASC_NODE><ARG_OF_PERICENTER>88.5170</ARG_OF_PERICENTER><MEAN_ANOMALY>271.7073</MEAN_ANOMALY></meanElements><tleParameters><EPHEMERIS_TYPE>0</EPHEMERIS_TYPE><CLASSIFICATION_TYPE>U</CLASSIFICATION_TYPE><NORAD_CAT_ID>63731</NORAD_CAT_ID><ELEMENT_SET_NO>999</ELEMENT_SET_NO><REV_AT_EPOCH>3202</REV_AT_EPOCH><BSTAR>.78428E-3</BSTAR><MEAN_MOTION_DOT>.6041E-4</MEAN_MOTION_DOT><MEAN_MOTION_DDOT>0</MEAN_MOTION_DDOT></tleParameters></data></segment></body></omm>

</ndm>
