KUIPER-00008            
1 63724U 25088A   25327.98533970 -.00012832  00000+0 -10005-2 0  9993
2 63724  51.8893 208.8144 0011150 111.3412 248.8750 14.99966014 32206
KUIPER-00009            
1 63725U 25088B   25327.88862227 -.00043857  00000+0 -57334-2 0  9990
2 63725  51.9014 214.3882 0013477 106.9584 253.2857 14.80063858 32110
KUIPER-00010            
1 63726U 25088C   25328.01952424  .00002994  00000+0  41787-3 0  9997
2 63726  51.9000 190.3138 0012356 148.3169 211.8540 14.80296229 32082
KUIPER-00011            
1 63727U 25088D   25327.84657110  .00012137  00000+0  16157-2 0  9994
2 63727  51.8989 198.6972 0014773 120.2299 240.0128 14.79933313 32089
KUIPER-00012            
1 63728U 25088E   25328.16668980 -.00080692  00000+0 -10406-1 0  9991
2 63728  51.8979 180.3067 0007598 130.8346 121.6009 14.81008072  3267
KUIPER-00013            
1 63729U 25088F   25327.89512678  .00005439  00000+0  74264-3 0  9991
2 63729  51.9015 215.8992 0007298  53.4049 306.7584 14.79887381 31909
KUIPER-00014            
1 63730U 25088G   25327.89356321  .00005802  00000+0  78949-3 0  9992
2 63730  51.9017 216.8822 0010053  98.4775 261.7327 14.79914028 31706
KUIPER-00015            
1 63731U 25088H   25328.02592618  .00006041  00000+0  78428-3 0  9998
2 63731  51.8991 227.5442 0011167  88.5170 271.7073 14.81833609 32023
